{
  "type": "FeatureCollection",
  "features": [
    {
      "type": "Feature",
      "properties": {
        "road_id": "W001",
        "name": "NH 66 (Mumbai-Kanyakumari)",
        "road_type": "primary",
        "flood_vulnerability": "LOW",
        "is_bridge": false,
        "length_km": 18.2
      },
      "geometry": {
        "type": "LineString",
        "coordinates": [
          [
            74.8431,
            12.8698
          ],
          [
            74.8934,
            13.0021
          ]
        ]
      }
    },
    {
      "type": "Feature",
      "properties": {
        "road_id": "W002",
        "name": "NH 75 (Mangalore-Bangalore)",
        "road_type": "primary",
        "flood_vulnerability": "LOW",
        "is_bridge": false,
        "length_km": 29.4
      },
      "geometry": {
        "type": "LineString",
        "coordinates": [
          [
            74.8431,
            12.8698
          ],
          [
            75.1203,
            12.8234
          ]
        ]
      }
    },
    {
      "type": "Feature",
      "properties": {
        "road_id": "W003",
        "name": "SH 90 (Port Road)",
        "road_type": "secondary",
        "flood_vulnerability": "LOW",
        "is_bridge": false,
        "length_km": 3.8
      },
      "geometry": {
        "type": "LineString",
        "coordinates": [
          [
            74.8431,
            12.8698
          ],
          [
            74.8103,
            12.8523
          ]
        ]
      }
    },
    {
      "type": "Feature",
      "properties": {
        "road_id": "W004",
        "name": "Kankanady Main Road",
        "road_type": "secondary",
        "flood_vulnerability": "LOW",
        "is_bridge": false,
        "length_km": 2.1
      },
      "geometry": {
        "type": "LineString",
        "coordinates": [
          [
            74.8431,
            12.8698
          ],
          [
            74.8821,
            12.8834
          ]
        ]
      }
    },
    {
      "type": "Feature",
      "properties": {
        "road_id": "W005",
        "name": "Bendoor Road",
        "road_type": "residential",
        "flood_vulnerability": "LOW",
        "is_bridge": false,
        "length_km": 1.4
      },
      "geometry": {
        "type": "LineString",
        "coordinates": [
          [
            74.8501,
            12.8812
          ],
          [
            74.8612,
            12.8923
          ]
        ]
      }
    },
    {
      "type": "Feature",
      "properties": {
        "road_id": "W006",
        "name": "Bejai Main Road",
        "road_type": "tertiary",
        "flood_vulnerability": "LOW",
        "is_bridge": false,
        "length_km": 1.8
      },
      "geometry": {
        "type": "LineString",
        "coordinates": [
          [
            74.8623,
            12.8734
          ],
          [
            74.8756,
            12.8834
          ]
        ]
      }
    },
    {
      "type": "Feature",
      "properties": {
        "road_id": "W007",
        "name": "Attavar Road",
        "road_type": "secondary",
        "flood_vulnerability": "LOW",
        "is_bridge": false,
        "length_km": 1.6
      },
      "geometry": {
        "type": "LineString",
        "coordinates": [
          [
            74.8534,
            12.8623
          ],
          [
            74.8678,
            12.8712
          ]
        ]
      }
    },
    {
      "type": "Feature",
      "properties": {
        "road_id": "W008",
        "name": "Balmatta Road",
        "road_type": "secondary",
        "flood_vulnerability": "LOW",
        "is_bridge": false,
        "length_km": 1.2
      },
      "geometry": {
        "type": "LineString",
        "coordinates": [
          [
            74.8456,
            12.8701
          ],
          [
            74.8534,
            12.8789
          ]
        ]
      }
    },
    {
      "type": "Feature",
      "properties": {
        "road_id": "W009",
        "name": "Court Road",
        "road_type": "tertiary",
        "flood_vulnerability": "LOW",
        "is_bridge": false,
        "length_km": 0.9
      },
      "geometry": {
        "type": "LineString",
        "coordinates": [
          [
            74.8423,
            12.8678
          ],
          [
            74.8512,
            12.8712
          ]
        ]
      }
    },
    {
      "type": "Feature",
      "properties": {
        "road_id": "W010",
        "name": "Kadri-Mangaladevi Road",
        "road_type": "tertiary",
        "flood_vulnerability": "LOW",
        "is_bridge": false,
        "length_km": 1.3
      },
      "geometry": {
        "type": "LineString",
        "coordinates": [
          [
            74.8612,
            12.8789
          ],
          [
            74.8701,
            12.8867
          ]
        ]
      }
    },
    {
      "type": "Feature",
      "properties": {
        "road_id": "B001",
        "name": "Old Port Bridge (Netravathi)",
        "road_type": "bridge",
        "flood_vulnerability": "HIGH",
        "is_bridge": true,
        "length_km": 0.3
      },
      "geometry": {
        "type": "LineString",
        "coordinates": [
          [
            74.8312,
            12.8534
          ],
          [
            74.8289,
            12.8523
          ]
        ]
      }
    },
    {
      "type": "Feature",
      "properties": {
        "road_id": "B002",
        "name": "Tannir Bhavi Bridge",
        "road_type": "bridge",
        "flood_vulnerability": "HIGH",
        "is_bridge": true,
        "length_km": 0.4
      },
      "geometry": {
        "type": "LineString",
        "coordinates": [
          [
            74.8156,
            12.8456
          ],
          [
            74.8134,
            12.8445
          ]
        ]
      }
    },
    {
      "type": "Feature",
      "properties": {
        "road_id": "B003",
        "name": "Gurpur River Bridge",
        "road_type": "bridge",
        "flood_vulnerability": "MEDIUM",
        "is_bridge": true,
        "length_km": 0.2
      },
      "geometry": {
        "type": "LineString",
        "coordinates": [
          [
            74.8423,
            12.8712
          ],
          [
            74.8401,
            12.8701
          ]
        ]
      }
    },
    {
      "type": "Feature",
      "properties": {
        "road_id": "B004",
        "name": "MRPL Bridge",
        "road_type": "bridge",
        "flood_vulnerability": "MEDIUM",
        "is_bridge": true,
        "length_km": 0.35
      },
      "geometry": {
        "type": "LineString",
        "coordinates": [
          [
            74.8856,
            12.9234
          ],
          [
            74.8834,
            12.9223
          ]
        ]
      }
    },
    {
      "type": "Feature",
      "properties": {
        "road_id": "W011",
        "name": "Tannir Bhavi Road (Flood prone)",
        "road_type": "unclassified",
        "flood_vulnerability": "HIGH",
        "is_bridge": false,
        "length_km": 1.1
      },
      "geometry": {
        "type": "LineString",
        "coordinates": [
          [
            74.8234,
            12.8423
          ],
          [
            74.8312,
            12.8501
          ]
        ]
      }
    },
    {
      "type": "Feature",
      "properties": {
        "road_id": "W012",
        "name": "Ullal Beach Road",
        "road_type": "unclassified",
        "flood_vulnerability": "HIGH",
        "is_bridge": false,
        "length_km": 1.3
      },
      "geometry": {
        "type": "LineString",
        "coordinates": [
          [
            74.8112,
            12.8034
          ],
          [
            74.8201,
            12.8145
          ]
        ]
      }
    }
  ]
}